{
  "type": "FeatureCollection",
  "features": [
    {
      "type": "Feature",
      "properties": {
        "norad_id": 34492,
        "name": "IRIDIUM 33 DEB",
        "group": "iridium-33-debris",
        "lat": -38.69874232770144,
        "lon": 154.43135902196966,
        "alt_km": 677.0695091398966,
        "timestamp": "2025-12-20T05:41:50.415982+00:00",
        "meta_object_name": "IRIDIUM 33 DEB",
        "meta_object_id": "1997-051GH",
        "meta_epoch": "2025-12-19T10:45:18.347328",
        "meta_mean_motion": 14.25846982,
        "meta_eccentricity": 0.0188646,
        "meta_inclination": 86.4707,
        "meta_ra_of_asc_node": 331.9164,
        "meta_arg_of_pericenter": 216.3823,
        "meta_mean_anomaly": 273.3437,
        "meta_ephemeris_type": 0,
        "meta_classification_type": "U",
        "meta_norad_cat_id": 34492,
        "meta_element_set_no": 999,
        "meta_rev_at_epoch": 85154,
        "meta_bstar": 0.0022012,
        "meta_mean_motion_dot": 6.332e-05,
        "meta_mean_motion_ddot": 0,
        "tle_line1": "1 34492U 97051GH  25353.44812902  .00006332  00000+0  22012-2 0  9994",
        "tle_line2": "2 34492  86.4707 331.9164 0188646 216.3823 273.3437 14.25846982851542"
      },
      "geometry": {
        "type": "Point",
        "coordinates": [
          154.43135902196966,
          -38.69874232770144
        ]
      }
    },
    {
      "type": "Feature",
      "properties": {
        "norad_id": 34497,
        "name": "IRIDIUM 33 DEB",
        "group": "iridium-33-debris",
        "lat": 38.21496746801049,
        "lon": -133.73967644885948,
        "alt_km": 853.2785906670433,
        "timestamp": "2025-12-20T05:41:50.415993+00:00",
        "meta_object_name": "IRIDIUM 33 DEB",
        "meta_object_id": "1997-051GN",
        "meta_epoch": "2025-12-19T10:35:53.025216",
        "meta_mean_motion": 14.2747197,
        "meta_eccentricity": 0.0078309,
        "meta_inclination": 86.2774,
        "meta_ra_of_asc_node": 49.5385,
        "meta_arg_of_pericenter": 317.619,
        "meta_mean_anomaly": 57.0969,
        "meta_ephemeris_type": 0,
        "meta_classification_type": "U",
        "meta_norad_cat_id": 34497,
        "meta_element_set_no": 999,
        "meta_rev_at_epoch": 86979,
        "meta_bstar": 0.00044435,
        "meta_mean_motion_dot": 1.145e-05,
        "meta_mean_motion_ddot": 0,
        "tle_line1": "1 34497U 97051GN  25353.44158594  .00001145  00000+0  44435-3 0  9990",
        "tle_line2": "2 34497  86.2774  49.5385 0078309 317.6190  57.0969 14.27471970869798"
      },
      "geometry": {
        "type": "Point",
        "coordinates": [
          -133.73967644885948,
          38.21496746801049
        ]
      }
    },
    {
      "type": "Feature",
      "properties": {
        "norad_id": 34508,
        "name": "IRIDIUM 33 DEB",
        "group": "iridium-33-debris",
        "lat": -56.64608895488595,
        "lon": -75.00201363573451,
        "alt_km": 768.6414314514186,
        "timestamp": "2025-12-20T05:41:50.416003+00:00",
        "meta_object_name": "IRIDIUM 33 DEB",
        "meta_object_id": "1997-051GZ",
        "meta_epoch": "2025-12-19T06:54:06.441120",
        "meta_mean_motion": 14.38473954,
        "meta_eccentricity": 0.0066492,
        "meta_inclination": 86.3709,
        "meta_ra_of_asc_node": 99.8676,
        "meta_arg_of_pericenter": 151.959,
        "meta_mean_anomaly": 208.5216,
        "meta_ephemeris_type": 0,
        "meta_classification_type": "U",
        "meta_norad_cat_id": 34508,
        "meta_element_set_no": 999,
        "meta_rev_at_epoch": 87403,
        "meta_bstar": 0.00082341,
        "meta_mean_motion_dot": 2.599e-05,
        "meta_mean_motion_ddot": 0,
        "tle_line1": "1 34508U 97051GZ  25353.28757455  .00002599  00000+0  82341-3 0  9998",
        "tle_line2": "2 34508  86.3709  99.8676 0066492 151.9590 208.5216 14.38473954874031"
      },
      "geometry": {
        "type": "Point",
        "coordinates": [
          -75.00201363573451,
          -56.64608895488595
        ]
      }
    },
    {
      "type": "Feature",
      "properties": {
        "norad_id": 34521,
        "name": "IRIDIUM 33 DEB",
        "group": "iridium-33-debris",
        "lat": 5.847489428803354,
        "lon": 27.618874712252104,
        "alt_km": 686.0898840761856,
        "timestamp": "2025-12-20T05:41:50.416013+00:00",
        "meta_object_name": "IRIDIUM 33 DEB",
        "meta_object_id": "1997-051HN",
        "meta_epoch": "2025-12-19T03:24:49.282848",
        "meta_mean_motion": 14.63417651,
        "meta_eccentricity": 0.0002349,
        "meta_inclination": 86.3791,
        "meta_ra_of_asc_node": 27.7294,
        "meta_arg_of_pericenter": 185.2812,
        "meta_mean_anomaly": 174.8375,
        "meta_ephemeris_type": 0,
        "meta_classification_type": "U",
        "meta_norad_cat_id": 34521,
        "meta_element_set_no": 999,
        "meta_rev_at_epoch": 88566,
        "meta_bstar": 0.00061239026,
        "meta_mean_motion_dot": 3.188e-05,
        "meta_mean_motion_ddot": 0,
        "tle_line1": "1 34521U 97051HN  25353.14223707  .00003188  00000+0  61239-3 0  9994",
        "tle_line2": "2 34521  86.3791  27.7294 0002349 185.2812 174.8375 14.63417651885663"
      },
      "geometry": {
        "type": "Point",
        "coordinates": [
          27.618874712252104,
          5.847489428803354
        ]
      }
    },
    {
      "type": "Feature",
      "properties": {
        "norad_id": 34525,
        "name": "IRIDIUM 33 DEB",
        "group": "iridium-33-debris",
        "lat": -7.249482265816798,
        "lon": 43.181083737316406,
        "alt_km": 752.4019853912387,
        "timestamp": "2025-12-20T05:41:50.416023+00:00",
        "meta_object_name": "IRIDIUM 33 DEB",
        "meta_object_id": "1997-051HS",
        "meta_epoch": "2025-12-19T22:13:43.269600",
        "meta_mean_motion": 14.42921337,
        "meta_eccentricity": 0.00064823,
        "meta_inclination": 86.3722,
        "meta_ra_of_asc_node": 43.7763,
        "meta_arg_of_pericenter": 78.7448,
        "meta_mean_anomaly": 98.7135,
        "meta_ephemeris_type": 0,
        "meta_classification_type": "U",
        "meta_norad_cat_id": 34525,
        "meta_element_set_no": 999,
        "meta_rev_at_epoch": 88191,
        "meta_bstar": 0.00024386831,
        "meta_mean_motion_dot": 8.35e-06,
        "meta_mean_motion_ddot": 0,
        "tle_line1": "1 34525U 97051HS  25353.92619525  .00000835  00000+0  24387-3 0  9990",
        "tle_line2": "2 34525  86.3722  43.7763 0006482  78.7448  98.7135 14.42921337881913"
      },
      "geometry": {
        "type": "Point",
        "coordinates": [
          43.181083737316406,
          -7.249482265816798
        ]
      }
    },
    {
      "type": "Feature",
      "properties": {
        "norad_id": 34529,
        "name": "IRIDIUM 33 DEB",
        "group": "iridium-33-debris",
        "lat": -5.988337635154031,
        "lon": -147.4021534071032,
        "alt_km": 756.8060531957135,
        "timestamp": "2025-12-20T05:41:50.416034+00:00",
        "meta_object_name": "IRIDIUM 33 DEB",
        "meta_object_id": "1997-051HW",
        "meta_epoch": "2025-12-19T20:30:08.657568",
        "meta_mean_motion": 14.40621055,
        "meta_eccentricity": 0.00056574,
        "meta_inclination": 86.3633,
        "meta_ra_of_asc_node": 32.3789,
        "meta_arg_of_pericenter": 155.7625,
        "meta_mean_anomaly": 204.3842,
        "meta_ephemeris_type": 0,
        "meta_classification_type": "U",
        "meta_norad_cat_id": 34529,
        "meta_element_set_no": 999,
        "meta_rev_at_epoch": 88244,
        "meta_bstar": 8.5074223e-05,
        "meta_mean_motion_dot": 2.91e-06,
        "meta_mean_motion_ddot": 0,
        "tle_line1": "1 34529U 97051HW  25353.85426687  .00000291  00000+0  85074-4 0  9998",
        "tle_line2": "2 34529  86.3633  32.3789 0005657 155.7625 204.3842 14.40621055882447"
      },
      "geometry": {
        "type": "Point",
        "coordinates": [
          -147.4021534071032,
          -5.988337635154031
        ]
      }
    },
    {
      "type": "Feature",
      "properties": {
        "norad_id": 34538,
        "name": "IRIDIUM 33 DEB",
        "group": "iridium-33-debris",
        "lat": 77.90708817693138,
        "lon": 19.969680223203454,
        "alt_km": 758.9858191333396,
        "timestamp": "2025-12-20T05:41:50.416044+00:00",
        "meta_object_name": "IRIDIUM 33 DEB",
        "meta_object_id": "1997-051JF",
        "meta_epoch": "2025-12-19T11:38:01.114368",
        "meta_mean_motion": 14.42685195,
        "meta_eccentricity": 0.0032244,
        "meta_inclination": 86.2759,
        "meta_ra_of_asc_node": 2.6015,
        "meta_arg_of_pericenter": 304.7784,
        "meta_mean_anomaly": 186.9228,
        "meta_ephemeris_type": 0,
        "meta_classification_type": "U",
        "meta_norad_cat_id": 34538,
        "meta_element_set_no": 999,
        "meta_rev_at_epoch": 87853,
        "meta_bstar": 0.00065883,
        "meta_mean_motion_dot": 2.223e-05,
        "meta_mean_motion_ddot": 0,
        "tle_line1": "1 34538U 97051JF  25353.48473512  .00002223  00000+0  65883-3 0  9998",
        "tle_line2": "2 34538  86.2759   2.6015 0032244 304.7784 186.9228 14.42685195878536"
      },
      "geometry": {
        "type": "Point",
        "coordinates": [
          19.969680223203454,
          77.90708817693138
        ]
      }
    }
  ]
}